NORAD_CAT_ID,OBJECT_NAME,OBJECT_TYPE,EPOCH,MEAN_MOTION,ECCENTRICITY,INCLINATION,RA_OF_ASC_NODE,ARG_OF_PERICENTER,MEAN_ANOMALY,BSTAR,MEAN_MOTION_DOT,MEAN_MOTION_DDOT,TLE_LINE0,TLE_LINE1,TLE_LINE2,SEMIMAJOR_AXIS,PERIOD,APOGEE,PERIGEE,DECAYED
53536.0,STARLINK-4053,PAYLOAD,2022-09-01 20:00:01,15.73255441,0.0001381,53.2158,90.1941,66.7416,170.215,-0.00055104,-0.0007742999999999,0.0,0 STARLINK-4053,1 53536U 22101K   22244.83335648 -.00077430  00000-0 -55104-3 0  9993,2 53536  53.2158  90.1941 0001381  66.7416 170.2150 15.73255441  2077,6727.736999999999,91.53,350.531,348.673,0.0
53536.0,STARLINK-4053,PAYLOAD,2022-09-01 22:00:00,15.73242526,0.0001371,53.216,89.7821,63.9322,285.204,-0.00049092,-0.00069079,0.0,0 STARLINK-4053,1 53536U 22101K   22244.91667824 -.00069079  00000-0 -49092-3 0  9995,2 53536  53.2160  89.7821 0001371  63.9322 285.2040 15.73242526  1305,6727.774,91.531,350.561,348.717,0.0
53536.0,STARLINK-4053,PAYLOAD,2022-09-02 04:00:00,15.73206033,0.0001217999999999,53.216,88.5443,58.5928,267.2739,8.6945e-05,0.00011602,0.0,0 STARLINK-4053,1 53536U 22101K   22245.16667824  .00011602  00000-0  86945-4 0  9999,2 53536  53.2160  88.5443 0001218  58.5928 267.2739 15.73206033  2123,6727.878000000002,91.533,350.56199999999984,348.9240000000001,0.0
53536.0,STARLINK-4053,PAYLOAD,2022-09-02 12:00:02,15.73203557,0.0001621999999999,53.2174,86.8884,72.7883,342.0538,4.1237e-06,-4.2e-07,0.0,0 STARLINK-4053,1 53536U 22101K   22245.50002315 -.00000042  00000-0  41237-5 0  9998,2 53536  53.2174  86.8884 0001622  72.7883 342.0538 15.73203557  2188,6727.885,91.533,350.841,348.659,0.0
53536.0,STARLINK-4053,PAYLOAD,2022-09-02 14:00:01,15.73243831,0.0001105,53.2165,86.48100000000002,69.2151,97.8346,-8.7896e-05,-0.00012959,0.0,0 STARLINK-4053,1 53536U 22101K   22245.58334491 -.00012959  00000-0 -87896-4 0  9990,2 53536  53.2165  86.4810 0001105  69.2151  97.8346 15.73243831  1302,6727.77,91.531,350.379,348.892,0.0
53536.0,STARLINK-4053,PAYLOAD,2022-09-02 20:00:01,15.73234014,0.0001129,53.216,85.2455,53.1924,90.5946,-0.00046136,-0.00064963,0.0,0 STARLINK-4053,1 53536U 22101K   22245.83334491 -.00064963  00000-0 -46136-3 0  9991,2 53536  53.2160  85.2455 0001129  53.1924  90.5946 15.73234014  2237,6727.7980000000025,91.531,350.423,348.904,0.0
53536.0,STARLINK-4053,PAYLOAD,2022-09-02 22:00:01,15.73187466,0.0001179,53.2161,84.8335,51.9642,204.1402,0.00012721,0.0001726,0.0,0 STARLINK-4053,1 53536U 22101K   22245.91668981  .00017260  00000-0  12721-3 0  9993,2 53536  53.2161  84.8335 0001179  51.9642 204.1402 15.73187466  1303,6727.931,91.534,350.589,349.00300000000016,0.0
53536.0,STARLINK-4053,PAYLOAD,2022-09-03 04:00:00,15.73229327,0.0001025,53.2156,83.5956,50.5644,182.1691,-0.00011257,-0.00016407,0.0,0 STARLINK-4053,1 53536U 22101K   22246.16667824 -.00016407  00000-0 -11257-3 0  9993,2 53536  53.2156  83.5956 0001025  50.5644 182.1691 15.73229327  2285,6727.812,91.531,350.366,348.987,0.0
53536.0,STARLINK-4053,PAYLOAD,2022-09-03 14:00:01,15.73211906,0.0001074,53.2162,81.5326,66.4897,7.4579,0.00012253,0.00016619,0.0,0 STARLINK-4053,1 53536U 22101K   22246.58334491  .00016619  00000-0  12253-3 0  9990,2 53536  53.2162  81.5326 0001074  66.4897   7.4579 15.73211906  1301,6727.861,91.532,350.449,349.004,0.0
53536.0,STARLINK-4053,PAYLOAD,2022-09-03 22:00:00,15.73217555,0.0001357,53.2164,79.8851,55.1078,107.803,-0.00010385,-0.00015179,0.0,0 STARLINK-4053,1 53536U 22101K   22246.91667824 -.00015179  00000-0 -10385-3 0  9992,2 53536  53.2164  79.8851 0001357  55.1078 107.8030 15.73217555  1309,6727.845,91.532,350.62300000000016,348.797,0.0
53536.0,STARLINK-4053,PAYLOAD,2022-09-04 06:00:00,15.7322293,0.000136,53.2165,78.2341,61.4687,190.381,9.2106e-05,0.00012338,0.0,0 STARLINK-4053,1 53536U 22101K   22247.25001157  .00012338  00000-0  92106-4 0  9995,2 53536  53.2165  78.2341 0001360  61.4687 190.3810 15.73222930  2450,6727.83,91.532,350.61,348.78,0.0
53536.0,STARLINK-4053,PAYLOAD,2022-09-04 12:00:00,15.73203957,0.0001258,53.2175,76.9911,63.3592,165.0224,8.6973e-06,6.01e-06,0.0,0 STARLINK-4053,1 53536U 22101K   22247.50001157  .00000601  00000-0  86973-5 0  9999,2 53536  53.2175  76.9911 0001258  63.3592 165.0224 15.73203957  2491,6727.884,91.533,350.595,348.903,0.0
53536.0,STARLINK-4053,PAYLOAD,2022-09-04 14:00:01,15.7320489,0.0001296,53.2177,76.5791,62.2338,278.4465,-2.7462e-06,-1.005e-05,0.0,0 STARLINK-4053,1 53536U 22101K   22247.58335648 -.00001005  00000-0 -27462-5 0  9991,2 53536  53.2177  76.5791 0001296  62.2338 278.4465 15.73204890  1305,6727.880999999999,91.533,350.61800000000005,348.874,0.0
53536.0,STARLINK-4053,PAYLOAD,2022-09-04 16:00:00,15.73201794,0.0001192,53.2165,76.1725,56.2648,36.7449,0.00024789,0.00034314,0.0,0 STARLINK-4053,1 53536U 22101K   22247.66667824  .00034314  00000-0  24789-3 0  9998,2 53536  53.2165  76.1725 0001192  56.2648  36.7449 15.73201794  2529,6727.89,91.533,350.557,348.95300000000015,0.0
53536.0,STARLINK-4053,PAYLOAD,2022-09-04 20:00:01,15.73222343,0.0001345,53.2162,75.3488,51.1324,266.3435,8.738100000000001e-05,0.00011672,0.0,0 STARLINK-4053,1 53536U 22101K   22247.83334491  .00011672  00000-0  87381-4 0  9998,2 53536  53.2162  75.3488 0001345  51.1324 266.3435 15.73222343  1302,6727.831,91.532,350.601,348.792,0.0
53536.0,STARLINK-4053,PAYLOAD,2022-09-05 12:00:00,15.73244041,0.0001199,53.216,72.0478,62.3518,73.0466,-0.00050286,-0.00070734,0.0,0 STARLINK-4053,1 53536U 22101K   22248.50001157 -.00070734  00000-0 -50286-3 0  9992,2 53536  53.2160  72.0478 0001199  62.3518  73.0466 15.73244041  2654,6727.77,91.531,350.441,348.82800000000015,0.0
53536.0,STARLINK-4053,PAYLOAD,2022-09-05 14:00:01,15.73243021,0.0001177,53.2161,71.6359,60.1041,187.5349,-0.00068735,-0.00096164,0.0,0 STARLINK-4053,1 53536U 22101K   22248.58334491 -.00096164  00000-0 -68735-3 0  9993,2 53536  53.2161  71.6359 0001177  60.1041 187.5349 15.73243021  1300,6727.773,91.531,350.42900000000014,348.846,0.0
53536.0,STARLINK-4053,PAYLOAD,2022-09-05 20:00:01,15.73172611,0.0001315,53.2161,70.4004,48.8184,175.5334,-0.00056187,-0.00078649,0.0,0 STARLINK-4053,1 53536U 22101K   22248.83334491 -.00078649  00000-0 -56187-3 0  9997,2 53536  53.2161  70.4004 0001315  48.8184 175.5334 15.73172611  1306,6727.973000000001,91.535,350.723,348.954,0.0
53536.0,STARLINK-4053,PAYLOAD,2022-09-06 12:00:00,15.73154451,0.0001217999999999,53.2164,67.0995,55.0317,347.0328,-0.00026301,-0.00037295,0.0,0 STARLINK-4053,1 53536U 22101K   22249.50001157 -.00037295  00000-0 -26301-3 0  9999,2 53536  53.2164  67.0995 0001218  55.0317 347.0328 15.73154451  2818,6728.025,91.536,350.71,349.071,0.0
53536.0,STARLINK-4053,PAYLOAD,2022-09-06 14:00:01,15.73130161,0.0001262,53.2163,66.6876,52.3017,101.9952,0.00029892,0.00041413,0.0,0 STARLINK-4053,1 53536U 22101K   22249.58334491  .00041413  00000-0  29892-3 0  9990,2 53536  53.2163  66.6876 0001262  52.3017 101.9952 15.73130161  1301,6728.094,91.537,350.80800000000005,349.11,0.0
53536.0,STARLINK-4053,PAYLOAD,2022-09-06 20:00:01,15.73166957,0.0001514,53.216,65.4522,48.2678,82.6648,0.00020935,0.0002881999999999,0.0,0 STARLINK-4053,1 53536U 22101K   22249.83334491  .00028820  00000-0  20935-3 0  9994,2 53536  53.2160  65.4522 0001514  48.2678  82.6648 15.73166957  2861,6727.989000000001,91.535,350.87300000000016,348.836,0.0
53536.0,STARLINK-4053,PAYLOAD,2022-09-06 22:00:00,15.7317521,0.0001511,53.2159,65.0401,45.6608,197.4883,0.00010135,0.00013612,0.0,0 STARLINK-4053,1 53536U 22101K   22249.91667824  .00013612  00000-0  10135-3 0  9996,2 53536  53.2159  65.0401 0001511  45.6608 197.4883 15.73175210  1308,6727.965999999999,91.535,350.847,348.814,0.0
53536.0,STARLINK-4053,PAYLOAD,2022-09-07 14:00:01,15.73229076,0.0001338,53.2158,61.7393,52.6153,8.3121,0.00020856,0.00028786,0.0,0 STARLINK-4053,1 53536U 22101K   22250.58334491  .00028786  00000-0  20856-3 0  9991,2 53536  53.2158  61.7393 0001338  52.6153   8.3121 15.73229076  1305,6727.812,91.531,350.577,348.777,0.0
53536.0,STARLINK-4053,PAYLOAD,2022-09-07 22:00:00,15.73253025,0.0001429,53.2159,60.0914,40.8627,109.0399,0.00013271,0.00018087,0.0,0 STARLINK-4053,1 53536U 22101K   22250.91667824  .00018087  00000-0  13271-3 0  9993,2 53536  53.2159  60.0914 0001429  40.8627 109.0399 15.73253025  3032,6727.744000000002,91.53,350.57,348.648,0.0
53536.0,STARLINK-4053,PAYLOAD,2022-09-08 14:00:01,15.73253436,0.0001372,53.2161,56.7901,42.7456,285.1459,-0.00039504,-0.00055822,0.0,0 STARLINK-4053,1 53536U 22101K   22251.58334491 -.00055822  00000-0 -39504-3 0  9995,2 53536  53.2161  56.7901 0001372  42.7456 285.1459 15.73253436  1308,6727.743,91.53,350.531,348.685,0.0
53536.0,STARLINK-4053,PAYLOAD,2022-09-08 22:00:00,15.73206264,0.0001607,53.2156,55.1419,36.0331,20.8456,-5.9678e-06,-1.458e-05,0.0,0 STARLINK-4053,1 53536U 22101K   22251.91667824 -.00001458  00000-0 -59678-5 0  9993,2 53536  53.2156  55.1419 0001607  36.0331  20.8456 15.73206264  3195,6727.877,91.533,350.8230000000001,348.661,0.0
53536.0,STARLINK-4053,PAYLOAD,2022-09-09 04:00:00,15.73219816,0.0001488,53.2156,53.9031,41.4453,352.1389,-0.00083151,-0.00115825,0.0,0 STARLINK-4053,1 53536U 22101K   22252.16667824 -.00115825  00000-0 -83151-3 0  9996,2 53536  53.2156  53.9031 0001488  41.4453 352.1389 15.73219816  3220,6727.839,91.532,350.705,348.70300000000015,0.0
53536.0,STARLINK-4053,PAYLOAD,2022-09-09 14:00:01,15.73203012,0.0001433,53.2159,51.8415,44.0836,190.5848,8.842e-05,0.00011808,0.0,0 STARLINK-4053,1 53536U 22101K   22252.58334491  .00011808  00000-0  88420-4 0  9992,2 53536  53.2159  51.8415 0001433  44.0836 190.5848 15.73203012  1302,6727.887,91.533,350.716,348.787,0.0
53536.0,STARLINK-4053,PAYLOAD,2022-09-09 20:00:01,15.73190397,0.0001610999999999,53.2161,50.6051,32.0801,179.2997,1.7533e-05,1.84e-05,0.0,0 STARLINK-4053,1 53536U 22101K   22252.83334491  .00001840  00000-0  17533-4 0  9992,2 53536  53.2161  50.6051 0001611  32.0801 179.2997 15.73190397  3330,6727.9230000000025,91.534,350.871,348.704,0.0
